STARLINK-1433
1 45711U 20035BG  26092.91668981  .00160336  00000+0  19373-2 0  9998
2 45711  53.0469 263.5448 0005955 216.1635   4.2835 15.59686839  5914
